[
    {
        "Altitude(m)": 622205.8529398084,
        "Argument of Periapsis(deg)": 0.0,
        "Eccentricity": 0.0,
        "Inclination(deg)": 60.0,
        "Latitude(deg)": -52.16239525467357,
        "Longitude(deg)": 27.70053676723072,
        "Mean Anomaly(deg)": -114.54550000000008,
        "RAAN(deg)": 260.0,
        "Satellite Name": "Test1 1159",
        "Satellite Number": 1159,
        "Semi-Major Axis(m)": 6980739.136638005,
        "Time(s)": 0
    },
    {
        "Altitude(m)": 622344.7589828979,
        "Argument of Periapsis(deg)": 0.00010418945913296404,
        "Eccentricity": 0.0,
        "Inclination(deg)": 60.0,
        "Latitude(deg)": -52.51997334179945,
        "Longitude(deg)": 28.48175025679336,
        "Mean Anomaly(deg)": -113.9253938545382,
        "RAAN(deg)": 259.99957995086027,
        "Satellite Name": "Test1 1159",
        "Satellite Number": 1159,
        "Semi-Major Axis(m)": 6980739.136638005,
        "Time(s)": 10
    }
]